{"type": "FeatureCollection", "features": [ {"type": "Feature", "properties": {"norad_id": 30224, "name": "FENGYUN 1C DEB", "group": "fengyun-1c-debris", "lat": 15.151565138096746, "lon": 19.88479653709299, "alt_km": 855.4934721497411, "timestamp": "2025-12-09T18:55:17.506662+00:00", "meta": {"OBJECT_NAME": "FENGYUN 1C DEB", "OBJECT_ID": "1999-025WH", "EPOCH": "2025-12-09T08:33:28.086912", "MEAN_MOTION": 13.89862202, "ECCENTRICITY": 0.01112712, "INCLINATION": 99.4844, "RA_OF_ASC_NODE": 22.0393, "ARG_OF_PERICENTER": 352.3923, "MEAN_ANOMALY": 23.0963, "EPHEMERIS_TYPE": 0, "CLASSIFICATION_TYPE": "U", "NORAD_CAT_ID": 30224, "ELEMENT_SET_NO": 999, "REV_AT_EPOCH": 95694, "BSTAR": 0.00052173127, "MEAN_MOTION_DOT": 6.28e-06, "MEAN_MOTION_DDOT": 0}, "tle": {"line1": "1 30224U 99025WH  25343.35657508  .00000628  00000+0  52173-3 0  9998", "line2": "2 30224  99.4844  22.0393 0111271 352.3923  23.0963 13.89862202956947"}}, "geometry": {"type": "Point", "coordinates": [19.88479653709299, 15.151565138096746]}}, {"type": "Feature", "properties": {"norad_id": 30225, "name": "FENGYUN 1C DEB", "group": "fengyun-1c-debris", "lat": -79.61385950251628, "lon": 66.90106329168344, "alt_km": 921.5765405681195, "timestamp": "2025-12-09T18:55:17.506672+00:00", "meta": {"OBJECT_NAME": "FENGYUN 1C DEB", "OBJECT_ID": "1999-025WJ", "EPOCH": "2025-12-09T00:57:09.866592", "MEAN_MOTION": 14.15180121, "ECCENTRICITY": 0.01005064, "INCLINATION": 98.6601, "RA_OF_ASC_NODE": 9.9184, "ARG_OF_PERICENTER": 96.4305, "MEAN_ANOMALY": 327.1409, "EPHEMERIS_TYPE": 0, "CLASSIFICATION_TYPE": "U", "NORAD_CAT_ID": 30225, "ELEMENT_SET_NO": 999, "REV_AT_EPOCH": 97484, "BSTAR": 0.00022097735, "MEAN_MOTION_DOT": 4.09e-06, "MEAN_MOTION_DDOT": 0}, "tle": {"line1": "1 30225U 99025WJ  25343.03969753  .00000409  00000+0  22098-3 0  9992", "line2": "2 30225  98.6601   9.9184 0100506  96.4305 327.1409 14.15180121974846"}}, "geometry": {"type": "Point", "coordinates": [66.90106329168344, -79.61385950251628]}}, {"type": "Feature", "properties": {"norad_id": 30229, "name": "FENGYUN 1C DEB", "group": "fengyun-1c-debris", "lat": 32.3935567742935, "lon": 37.33247072634097, "alt_km": 664.2176529793314, "timestamp": "2025-12-09T18:55:17.506682+00:00", "meta": {"OBJECT_NAME": "FENGYUN 1C DEB", "OBJECT_ID": "1999-025WN", "EPOCH": "2025-12-09T10:36:53.117280", "MEAN_MOTION": 14.6045111, "ECCENTRICITY": 0.00377079, "INCLINATION": 99.0621, "RA_OF_ASC_NODE": 42.766, "ARG_OF_PERICENTER": 50.8165, "MEAN_ANOMALY": 323.5603, "EPHEMERIS_TYPE": 0, "CLASSIFICATION_TYPE": "U", "NORAD_CAT_ID": 30229, "ELEMENT_SET_NO": 999, "REV_AT_EPOCH": 98878, "BSTAR": 0.0025129773, "MEAN_MOTION_DOT": 0.00012264, "MEAN_MOTION_DDOT": 0}, "tle": {"line1": "1 30229U 99025WN  25343.44228145  .00012264  00000+0  25130-2 0  9995", "line2": "2 30229  99.0621  42.7660 0037707  50.8165 323.5603 14.60451110988784"}}, "geometry": {"type": "Point", "coordinates": [37.33247072634097, 32.3935567742935]}}, {"type": "Feature", "properties": {"norad_id": 30231, "name": "FENGYUN 1C DEB", "group": "fengyun-1c-debris", "lat": 56.89568672462192, "lon": 14.848836965754916, "alt_km": 760.9282383153468, "timestamp": "2025-12-09T18:55:17.506692+00:00", "meta": {"OBJECT_NAME": "FENGYUN 1C DEB", "OBJECT_ID": "1999-025WQ", "EPOCH": "2025-12-09T01:55:27.274656", "MEAN_MOTION": 14.11630423, "ECCENTRICITY": 0.01286594, "INCLINATION": 98.8054, "RA_OF_ASC_NODE": 27.9066, "ARG_OF_PERICENTER": 39.6107, "MEAN_ANOMALY": 20.8186, "EPHEMERIS_TYPE": 0, "CLASSIFICATION_TYPE": "U", "NORAD_CAT_ID": 30231, "ELEMENT_SET_NO": 999, "REV_AT_EPOCH": 96968, "BSTAR": 0.00075851317, "MEAN_MOTION_DOT": 1.448e-05, "MEAN_MOTION_DDOT": 0}, "tle": {"line1": "1 30231U 99025WQ  25343.08017679  .00001448  00000+0  75851-3 0  9994", "line2": "2 30231  98.8054  27.9066 0128659  39.6107  20.8186 14.11630423969680"}}, "geometry": {"type": "Point", "coordinates": [14.848836965754916, 56.89568672462192]}}, {"type": "Feature", "properties": {"norad_id": 30232, "name": "FENGYUN 1C DEB", "group": "fengyun-1c-debris", "lat": 12.180127701451651, "lon": 5.679488905062019, "alt_km": 777.2277399212553, "timestamp": "2025-12-09T18:55:17.506702+00:00", "meta": {"OBJECT_NAME": "FENGYUN 1C DEB", "OBJECT_ID": "1999-025WR", "EPOCH": "2025-12-09T11:51:20.558016", "MEAN_MOTION": 14.63550977, "ECCENTRICITY": 0.01362198, "INCLINATION": 98.6932, "RA_OF_ASC_NODE": 183.4766, "ARG_OF_PERICENTER": 359.8328, "MEAN_ANOMALY": 57.1497, "EPHEMERIS_TYPE": 0, "CLASSIFICATION_TYPE": "U", "NORAD_CAT_ID": 30232, "ELEMENT_SET_NO": 999, "REV_AT_EPOCH": 99704, "BSTAR": 0.00099933354, "MEAN_MOTION_DOT": 5.876e-05, "MEAN_MOTION_DDOT": 0}, "tle": {"line1": "1 30232U 99025WR  25343.49398794  .00005876  00000+0  99933-3 0  9996", "line2": "2 30232  98.6932 183.4766 0136219 359.8328  57.1497 14.63550977997043"}}, "geometry": {"type": "Point", "coordinates": [5.679488905062019, 12.180127701451651]}}, {"type": "Feature", "properties": {"norad_id": 30234, "name": "FENGYUN 1C DEB", "group": "fengyun-1c-debris", "lat": -25.4923547578707, "lon": 170.4986156949954, "alt_km": 867.1126908726692, "timestamp": "2025-12-09T18:55:17.506712+00:00", "meta": {"OBJECT_NAME": "FENGYUN 1C DEB", "OBJECT_ID": "1999-025WT", "EPOCH": "2025-12-08T23:35:37.629024", "MEAN_MOTION": 14.1685623, "ECCENTRICITY": 0.0067071, "INCLINATION": 98.6338, "RA_OF_ASC_NODE": 353.8714, "ARG_OF_PERICENTER": 85.8232, "MEAN_ANOMALY": 333.8364, "EPHEMERIS_TYPE": 0, "CLASSIFICATION_TYPE": "U", "NORAD_CAT_ID": 30234, "ELEMENT_SET_NO": 999, "REV_AT_EPOCH": 97403, "BSTAR": 0.00044739, "MEAN_MOTION_DOT": 8.75e-06, "MEAN_MOTION_DDOT": 0}, "tle": {"line1": "1 30234U 99025WT  25342.98307441  .00000875  00000+0  44739-3 0  9998", "line2": "2 30234  98.6338 353.8714 0067071  85.8232 333.8364 14.16856230974030"}}, "geometry": {"type": "Point", "coordinates": [170.4986156949954, -25.4923547578707]}}, {"type": "Feature", "properties": {"norad_id": 30235, "name": "FENGYUN 1C DEB", "group": "fengyun-1c-debris", "lat": -70.03185187847423, "lon": 156.96282979497482, "alt_km": 760.2003457578812, "timestamp": "2025-12-09T18:55:17.506722+00:00", "meta": {"OBJECT_NAME": "FENGYUN 1C DEB", "OBJECT_ID": "1999-025WU", "EPOCH": "2025-12-09T07:37:00.454368", "MEAN_MOTION": 14.08771869, "ECCENTRICITY": 0.01533, "INCLINATION": 98.7498, "RA_OF_ASC_NODE": 1.5845, "ARG_OF_PERICENTER": 248.2676, "MEAN_ANOMALY": 135.9844, "EPHEMERIS_TYPE": 0, "CLASSIFICATION_TYPE": "U", "NORAD_CAT_ID": 30235, "ELEMENT_SET_NO": 999, "REV_AT_EPOCH": 96845, "BSTAR": 0.00057337, "MEAN_MOTION_DOT": 1.058e-05, "MEAN_MOTION_DDOT": 0}, "tle": {"line1": "1 30235U 99025WU  25343.31736637  .00001058  00000+0  57337-3 0  9992", "line2": "2 30235  98.7498   1.5845 0153300 248.2676 135.9844 14.08771869968457"}}, "geometry": {"type": "Point", "coordinates": [156.96282979497482, -70.03185187847423]}}, {"type": "Feature", "properties": {"norad_id": 30237, "name": "FENGYUN 1C DEB", "group": "fengyun-1c-debris", "lat": -24.329136592993724, "lon": -97.58413336221818, "alt_km": 764.5926558229194, "timestamp": "2025-12-09T18:55:17.506732+00:00", "meta": {"OBJECT_NAME": "FENGYUN 1C DEB", "OBJECT_ID": "1999-025WW", "EPOCH": "2025-12-09T06:33:39.269088", "MEAN_MOTION": 14.40806755, "ECCENTRICITY": 0.0013703, "INCLINATION": 98.8257, "RA_OF_ASC_NODE": 85.9128, "ARG_OF_PERICENTER": 315.8244, "MEAN_ANOMALY": 98.9807, "EPHEMERIS_TYPE": 0, "CLASSIFICATION_TYPE": "U", "NORAD_CAT_ID": 30237, "ELEMENT_SET_NO": 999, "REV_AT_EPOCH": 97648, "BSTAR": 0.003245, "MEAN_MOTION_DOT": 0.00010369, "MEAN_MOTION_DDOT": 0}, "tle": {"line1": "1 30237U 99025WW  25343.27337117  .00010369  00000+0  32450-2 0  9992", "line2": "2 30237  98.8257  85.9128 0013703 315.8244  98.9807 14.40806755976485"}}, "geometry": {"type": "Point", "coordinates": [-97.58413336221818, -24.329136592993724]}}, {"type": "Feature", "properties": {"norad_id": 30239, "name": "FENGYUN 1C DEB", "group": "fengyun-1c-debris", "lat": 23.496823032313237, "lon": 129.0333941993052, "alt_km": 864.2671749415595, "timestamp": "2025-12-09T18:55:17.506742+00:00", "meta": {"OBJECT_NAME": "FENGYUN 1C DEB", "OBJECT_ID": "1999-025WY", "EPOCH": "2025-12-08T09:03:39.099168", "MEAN_MOTION": 11.38060578, "ECCENTRICITY": 0.13460507, "INCLINATION": 99.5887, "RA_OF_ASC_NODE": 132.3018, "ARG_OF_PERICENTER": 38.3016, "MEAN_ANOMALY": 330.6281, "EPHEMERIS_TYPE": 0, "CLASSIFICATION_TYPE": "U", "NORAD_CAT_ID": 30239, "ELEMENT_SET_NO": 999, "REV_AT_EPOCH": 54485, "BSTAR": 0.014654901, "MEAN_MOTION_DOT": 4.849e-05, "MEAN_MOTION_DDOT": 0}, "tle": {"line1": "1 30239U 99025WY  25342.37753587  .00004849  00000+0  14655-1 0  9999", "line2": "2 30239  99.5887 132.3018 1346050  38.3016 330.6281 11.38060578544851"}}, "geometry": {"type": "Point", "coordinates": [129.0333941993052, 23.496823032313237]}}, {"type": "Feature", "properties": {"norad_id": 30241, "name": "FENGYUN 1C DEB", "group": "fengyun-1c-debris", "lat": 70.93271472784032, "lon": -35.59013593522162, "alt_km": 752.5014462541976, "timestamp": "2025-12-09T18:55:17.506753+00:00", "meta": {"OBJECT_NAME": "FENGYUN 1C DEB", "OBJECT_ID": "1999-025XA", "EPOCH": "2025-12-09T15:06:57.775968", "MEAN_MOTION": 14.0954175, "ECCENTRICITY": 0.01468144, "INCLINATION": 99.1484, "RA_OF_ASC_NODE": 116.4601, "ARG_OF_PERICENTER": 89.7461, "MEAN_ANOMALY": 292.3673, "EPHEMERIS_TYPE": 0, "CLASSIFICATION_TYPE": "U", "NORAD_CAT_ID": 30241, "ELEMENT_SET_NO": 999, "REV_AT_EPOCH": 96868, "BSTAR": 0.00038339437, "MEAN_MOTION_DOT": 6.96e-06, "MEAN_MOTION_DDOT": 0}, "tle": {"line1": "1 30241U 99025XA  25343.62983537  .00000696  00000+0  38339-3 0  9994", "line2": "2 30241  99.1484 116.4601 0146814  89.7461 292.3673 14.09541750968680"}}, "geometry": {"type": "Point", "coordinates": [-35.59013593522162, 70.93271472784032]}}]}